{
  "type": "FeatureCollection",
  "name": "pune_sample_grid",
  "crs": {
    "type": "name",
    "properties": {
      "name": "urn:ogc:def:crs:OGC:1.3:CRS84"
    }
  },
  "metadata": {
    "city": "Pune",
    "country": "India",
    "grid_resolution_m": 500,
    "crs": "EPSG:4326",
    "projected_crs": "EPSG:32643",
    "source": "Prototype / Sample Data (Phase 0)",
    "date": "2026-05-15"
  },
  "features": [
    {
      "type": "Feature",
      "properties": {
        "grid_id": "PUNE_GRID_001",
        "latitude": 18.5204,
        "longitude": 73.8567,
        "location_name": "Shivajinagar Commercial Core",
        "lst": 41.8,
        "ndvi": 0.12,
        "ndbi": 0.48,
        "ndwi": -0.25,
        "lulc": "Built-up",
        "albedo": 0.14,
        "air_temperature": 36.2,
        "humidity": 42.0,
        "wind_speed": 2.1,
        "building_density": 0.85,
        "road_density": 0.65,
        "population_density": 18500,
        "heat_risk": "Extreme"
      },
      "geometry": {
        "type": "Polygon",
        "coordinates": [
          [
            [73.852, 18.517],
            [73.861, 18.517],
            [73.861, 18.524],
            [73.852, 18.524],
            [73.852, 18.517]
          ]
        ]
      }
    },
    {
      "type": "Feature",
      "properties": {
        "grid_id": "PUNE_GRID_002",
        "latitude": 18.5362,
        "longitude": 73.8940,
        "location_name": "Koregaon Park Greenery",
        "lst": 32.4,
        "ndvi": 0.58,
        "ndbi": 0.08,
        "ndwi": 0.12,
        "lulc": "Vegetation",
        "albedo": 0.22,
        "air_temperature": 32.8,
        "humidity": 58.0,
        "wind_speed": 3.4,
        "building_density": 0.32,
        "road_density": 0.28,
        "population_density": 8200,
        "heat_risk": "Low"
      },
      "geometry": {
        "type": "Polygon",
        "coordinates": [
          [
            [73.889, 18.533],
            [73.898, 18.533],
            [73.898, 18.540],
            [73.889, 18.540],
            [73.889, 18.533]
          ]
        ]
      }
    },
    {
      "type": "Feature",
      "properties": {
        "grid_id": "PUNE_GRID_003",
        "latitude": 18.5074,
        "longitude": 73.8077,
        "location_name": "Kothrud Residential High-Density",
        "lst": 38.5,
        "ndvi": 0.24,
        "ndbi": 0.36,
        "ndwi": -0.18,
        "lulc": "Built-up",
        "albedo": 0.16,
        "air_temperature": 34.6,
        "humidity": 46.0,
        "wind_speed": 2.5,
        "building_density": 0.72,
        "road_density": 0.52,
        "population_density": 15400,
        "heat_risk": "High"
      },
      "geometry": {
        "type": "Polygon",
        "coordinates": [
          [
            [73.803, 18.504],
            [73.812, 18.504],
            [73.812, 18.511],
            [73.803, 18.511],
            [73.803, 18.504]
          ]
        ]
      }
    },
    {
      "type": "Feature",
      "properties": {
        "grid_id": "PUNE_GRID_004",
        "latitude": 18.5912,
        "longitude": 73.7389,
        "location_name": "Hinjawadi IT Hub Park",
        "lst": 39.8,
        "ndvi": 0.18,
        "ndbi": 0.42,
        "ndwi": -0.20,
        "lulc": "Built-up",
        "albedo": 0.15,
        "air_temperature": 35.5,
        "humidity": 43.0,
        "wind_speed": 2.8,
        "building_density": 0.78,
        "road_density": 0.58,
        "population_density": 12000,
        "heat_risk": "High"
      },
      "geometry": {
        "type": "Polygon",
        "coordinates": [
          [
            [73.734, 18.588],
            [73.743, 18.588],
            [73.743, 18.595],
            [73.734, 18.595],
            [73.734, 18.588]
          ]
        ]
      }
    },
    {
      "type": "Feature",
      "properties": {
        "grid_id": "PUNE_GRID_005",
        "latitude": 18.5089,
        "longitude": 73.9260,
        "location_name": "Hadapsar Industrial Zone",
        "lst": 42.5,
        "ndvi": 0.09,
        "ndbi": 0.54,
        "ndwi": -0.30,
        "lulc": "Industrial / Built-up",
        "albedo": 0.12,
        "air_temperature": 36.8,
        "humidity": 39.0,
        "wind_speed": 2.0,
        "building_density": 0.88,
        "road_density": 0.70,
        "population_density": 16800,
        "heat_risk": "Extreme"
      },
      "geometry": {
        "type": "Polygon",
        "coordinates": [
          [
            [73.921, 18.505],
            [73.930, 18.505],
            [73.930, 18.512],
            [73.921, 18.512],
            [73.921, 18.505]
          ]
        ]
      }
    },
    {
      "type": "Feature",
      "properties": {
        "grid_id": "PUNE_GRID_006",
        "latitude": 18.5679,
        "longitude": 73.9143,
        "location_name": "Viman Nagar Commercial Corridor",
        "lst": 37.2,
        "ndvi": 0.22,
        "ndbi": 0.38,
        "ndwi": -0.15,
        "lulc": "Built-up",
        "albedo": 0.17,
        "air_temperature": 34.2,
        "humidity": 48.0,
        "wind_speed": 3.0,
        "building_density": 0.70,
        "road_density": 0.50,
        "population_density": 14100,
        "heat_risk": "Medium"
      },
      "geometry": {
        "type": "Polygon",
        "coordinates": [
          [
            [73.909, 18.564],
            [73.918, 18.564],
            [73.918, 18.571],
            [73.909, 18.571],
            [73.909, 18.564]
          ]
        ]
      }
    },
    {
      "type": "Feature",
      "properties": {
        "grid_id": "PUNE_GRID_007",
        "latitude": 18.4550,
        "longitude": 73.8560,
        "location_name": "Katraj Reservoir & Forest Park",
        "lst": 31.0,
        "ndvi": 0.65,
        "ndbi": -0.12,
        "ndwi": 0.45,
        "lulc": "Water / Vegetation",
        "albedo": 0.25,
        "air_temperature": 31.5,
        "humidity": 64.0,
        "wind_speed": 3.8,
        "building_density": 0.15,
        "road_density": 0.18,
        "population_density": 3500,
        "heat_risk": "Low"
      },
      "geometry": {
        "type": "Polygon",
        "coordinates": [
          [
            [73.851, 18.452],
            [73.860, 18.452],
            [73.860, 18.459],
            [73.851, 18.459],
            [73.851, 18.452]
          ]
        ]
      }
    },
    {
      "type": "Feature",
      "properties": {
        "grid_id": "PUNE_GRID_008",
        "latitude": 18.5300,
        "longitude": 73.8400,
        "location_name": "Mula-Mutha Riverbank Segment",
        "lst": 33.1,
        "ndvi": 0.42,
        "ndbi": 0.05,
        "ndwi": 0.52,
        "lulc": "Water Buffer",
        "albedo": 0.20,
        "air_temperature": 32.2,
        "humidity": 61.0,
        "wind_speed": 3.5,
        "building_density": 0.25,
        "road_density": 0.30,
        "population_density": 6700,
        "heat_risk": "Low"
      },
      "geometry": {
        "type": "Polygon",
        "coordinates": [
          [
            [73.835, 18.527],
            [73.844, 18.527],
            [73.844, 18.534],
            [73.835, 18.534],
            [73.835, 18.527]
          ]
        ]
      }
    }
  ]
}
